CZ-8A R/B               
1 68138U 26047K   26091.54269696 -.00000101  00000+0  28503-4 0  9994
2 68138  49.9536 336.1762 0044756 216.7675 143.0160 14.12232363  2781
CZ-2D R/B               
1 68141U 26048C   26091.48108385  .00001763  00000+0  15825-3 0  9995
2 68141  35.1312   7.1682 0015454 166.9397 193.1714 14.95577556  2913
STARLINK-36604          
1 68142U 26049A   26091.50001156 -.00014563  00000+0 -96920-4 0  9998
2 68142  97.2843 111.8860 0001250  99.5427 131.1139 15.75192649  4298
STARLINK-36995          
1 68143U 26049B   26091.50001156 -.01405344  00000+0 -10096-1 0  9998
2 68143  97.2840 111.8962 0001490  89.0018 166.9664 15.76316379  4282
STARLINK-37020          
1 68144U 26049C   26090.81912166  .00199264  00000+0  10141-2 0  9994
2 68144  97.2840 111.1831 0001257 119.6054 240.5340 15.80889051  2906
STARLINK-36244          
1 68145U 26049D   26091.53203536  .00236758  00000+0  15409-2 0  9991
2 68145  97.2842 111.8963 0001054  71.1034 289.0346 15.75245140  3013
STARLINK-36980          
1 68146U 26049E   26091.51467824  .00238548  00000+0  12079-2 0  9991
2 68146  97.2833 111.9205 0000907 163.0882 197.0416 15.80897610  3019
STARLINK-37055          
1 68147U 26049F   26091.51618392  .00320622  00000+0  16068-2 0  9997
2 68147  97.2831 111.9184 0001317 144.9972 215.1383 15.80911967  3015
STARLINK-36981          
1 68148U 26049G   26091.51317604  .00242994  00000+0  12277-2 0  9993
2 68148  97.2833 111.9228 0000951  88.4674 271.6703 15.80933574  3012
STARLINK-36992          
1 68149U 26049H   26091.51242478  .00240760  00000+0  12188-2 0  9990
2 68149  97.2834 111.9239 0001214  78.1659 281.9745 15.80895993  3010
