CCSDS_OMM_VERS = 2.0
CREATION_DATE  = 
ORIGINATOR     = 

OBJECT_NAME    = CZ-8A R/B
OBJECT_ID      = 2026-047K
CENTER_NAME    = EARTH
REF_FRAME      = TEME
TIME_SYSTEM    = UTC
MEAN_ELEMENT_THEORY = SGP/SGP4

EPOCH          = 2026-04-01T13:01:29.017344
MEAN_MOTION    = 14.12232363
ECCENTRICITY   = .0044756
INCLINATION    = 49.9536
RA_OF_ASC_NODE = 336.1762
ARG_OF_PERICENTER = 216.7675
MEAN_ANOMALY   = 143.0160

EPHEMERIS_TYPE = 0
CLASSIFICATION_TYPE = U
NORAD_CAT_ID   = 68138
ELEMENT_SET_NO = 999
REV_AT_EPOCH   = 278
BSTAR          = .28503E-4
MEAN_MOTION_DOT = -.101E-5
MEAN_MOTION_DDOT = 0

CCSDS_OMM_VERS = 2.0
CREATION_DATE  = 
ORIGINATOR     = 

OBJECT_NAME    = CZ-2D R/B
OBJECT_ID      = 2026-048C
CENTER_NAME    = EARTH
REF_FRAME      = TEME
TIME_SYSTEM    = UTC
MEAN_ELEMENT_THEORY = SGP/SGP4

EPOCH          = 2026-04-01T11:32:45.644640
MEAN_MOTION    = 14.95577556
ECCENTRICITY   = .0015454
INCLINATION    = 35.1312
RA_OF_ASC_NODE = 7.1682
ARG_OF_PERICENTER = 166.9397
MEAN_ANOMALY   = 193.1714

EPHEMERIS_TYPE = 0
CLASSIFICATION_TYPE = U
NORAD_CAT_ID   = 68141
ELEMENT_SET_NO = 999
REV_AT_EPOCH   = 291
BSTAR          = .15825E-3
MEAN_MOTION_DOT = .1763E-4
MEAN_MOTION_DDOT = 0

CCSDS_OMM_VERS = 2.0
CREATION_DATE  = 
ORIGINATOR     = 

OBJECT_NAME    = STARLINK-36604
OBJECT_ID      = 2026-049A
CENTER_NAME    = EARTH
REF_FRAME      = TEME
TIME_SYSTEM    = UTC
MEAN_ELEMENT_THEORY = SGP/SGP4

EPOCH          = 2026-04-01T12:00:00.998784
MEAN_MOTION    = 15.75192649
ECCENTRICITY   = .000125
INCLINATION    = 97.2843
RA_OF_ASC_NODE = 111.8860
ARG_OF_PERICENTER = 99.5427
MEAN_ANOMALY   = 131.1139

EPHEMERIS_TYPE = 0
CLASSIFICATION_TYPE = U
NORAD_CAT_ID   = 68142
ELEMENT_SET_NO = 999
REV_AT_EPOCH   = 429
BSTAR          = -.9692E-4
MEAN_MOTION_DOT = -.14563E-3
MEAN_MOTION_DDOT = 0

CCSDS_OMM_VERS = 2.0
CREATION_DATE  = 
ORIGINATOR     = 

OBJECT_NAME    = STARLINK-36995
OBJECT_ID      = 2026-049B
CENTER_NAME    = EARTH
REF_FRAME      = TEME
TIME_SYSTEM    = UTC
MEAN_ELEMENT_THEORY = SGP/SGP4

EPOCH          = 2026-04-01T12:00:00.998784
MEAN_MOTION    = 15.76316379
ECCENTRICITY   = .000149
INCLINATION    = 97.2840
RA_OF_ASC_NODE = 111.8962
ARG_OF_PERICENTER = 89.0018
MEAN_ANOMALY   = 166.9664

EPHEMERIS_TYPE = 0
CLASSIFICATION_TYPE = U
NORAD_CAT_ID   = 68143
ELEMENT_SET_NO = 999
REV_AT_EPOCH   = 428
BSTAR          = -.10096E-1
MEAN_MOTION_DOT = -.1405344E-1
MEAN_MOTION_DDOT = 0

CCSDS_OMM_VERS = 2.0
CREATION_DATE  = 
ORIGINATOR     = 

OBJECT_NAME    = STARLINK-37020
OBJECT_ID      = 2026-049C
CENTER_NAME    = EARTH
REF_FRAME      = TEME
TIME_SYSTEM    = UTC
MEAN_ELEMENT_THEORY = SGP/SGP4

EPOCH          = 2026-03-31T19:39:32.111424
MEAN_MOTION    = 15.80889051
ECCENTRICITY   = .00012571
INCLINATION    = 97.2840
RA_OF_ASC_NODE = 111.1831
ARG_OF_PERICENTER = 119.6054
MEAN_ANOMALY   = 240.5340

EPHEMERIS_TYPE = 0
CLASSIFICATION_TYPE = U
NORAD_CAT_ID   = 68144
ELEMENT_SET_NO = 999
REV_AT_EPOCH   = 290
BSTAR          = .10140695E-2
MEAN_MOTION_DOT = .199264E-2
MEAN_MOTION_DDOT = 0

CCSDS_OMM_VERS = 2.0
CREATION_DATE  = 
ORIGINATOR     = 

OBJECT_NAME    = STARLINK-36244
OBJECT_ID      = 2026-049D
CENTER_NAME    = EARTH
REF_FRAME      = TEME
TIME_SYSTEM    = UTC
MEAN_ELEMENT_THEORY = SGP/SGP4

EPOCH          = 2026-04-01T12:46:07.855104
MEAN_MOTION    = 15.75245140
ECCENTRICITY   = .0001054
INCLINATION    = 97.2842
RA_OF_ASC_NODE = 111.8963
ARG_OF_PERICENTER = 71.1034
MEAN_ANOMALY   = 289.0346

EPHEMERIS_TYPE = 0
CLASSIFICATION_TYPE = U
NORAD_CAT_ID   = 68145
ELEMENT_SET_NO = 999
REV_AT_EPOCH   = 301
BSTAR          = .15409E-2
MEAN_MOTION_DOT = .236758E-2
MEAN_MOTION_DDOT = 0

CCSDS_OMM_VERS = 2.0
CREATION_DATE  = 
ORIGINATOR     = 

OBJECT_NAME    = STARLINK-36980
OBJECT_ID      = 2026-049E
CENTER_NAME    = EARTH
REF_FRAME      = TEME
TIME_SYSTEM    = UTC
MEAN_ELEMENT_THEORY = SGP/SGP4

EPOCH          = 2026-04-01T12:21:08.199936
MEAN_MOTION    = 15.80897610
ECCENTRICITY   = .0000907
INCLINATION    = 97.2833
RA_OF_ASC_NODE = 111.9205
ARG_OF_PERICENTER = 163.0882
MEAN_ANOMALY   = 197.0416

EPHEMERIS_TYPE = 0
CLASSIFICATION_TYPE = U
NORAD_CAT_ID   = 68146
ELEMENT_SET_NO = 999
REV_AT_EPOCH   = 301
BSTAR          = .12079E-2
MEAN_MOTION_DOT = .238548E-2
MEAN_MOTION_DDOT = 0

CCSDS_OMM_VERS = 2.0
CREATION_DATE  = 
ORIGINATOR     = 

OBJECT_NAME    = STARLINK-37055
OBJECT_ID      = 2026-049F
CENTER_NAME    = EARTH
REF_FRAME      = TEME
TIME_SYSTEM    = UTC
MEAN_ELEMENT_THEORY = SGP/SGP4

EPOCH          = 2026-04-01T12:23:18.290688
MEAN_MOTION    = 15.80911967
ECCENTRICITY   = .0001317
INCLINATION    = 97.2831
RA_OF_ASC_NODE = 111.9184
ARG_OF_PERICENTER = 144.9972
MEAN_ANOMALY   = 215.1383

EPHEMERIS_TYPE = 0
CLASSIFICATION_TYPE = U
NORAD_CAT_ID   = 68147
ELEMENT_SET_NO = 999
REV_AT_EPOCH   = 301
BSTAR          = .16068E-2
MEAN_MOTION_DOT = .320622E-2
MEAN_MOTION_DDOT = 0

CCSDS_OMM_VERS = 2.0
CREATION_DATE  = 
ORIGINATOR     = 

OBJECT_NAME    = STARLINK-36981
OBJECT_ID      = 2026-049G
CENTER_NAME    = EARTH
REF_FRAME      = TEME
TIME_SYSTEM    = UTC
MEAN_ELEMENT_THEORY = SGP/SGP4

EPOCH          = 2026-04-01T12:18:58.409856
MEAN_MOTION    = 15.80933574
ECCENTRICITY   = .0000951
INCLINATION    = 97.2833
RA_OF_ASC_NODE = 111.9228
ARG_OF_PERICENTER = 88.4674
MEAN_ANOMALY   = 271.6703

EPHEMERIS_TYPE = 0
CLASSIFICATION_TYPE = U
NORAD_CAT_ID   = 68148
ELEMENT_SET_NO = 999
REV_AT_EPOCH   = 301
BSTAR          = .12277E-2
MEAN_MOTION_DOT = .242994E-2
MEAN_MOTION_DDOT = 0

CCSDS_OMM_VERS = 2.0
CREATION_DATE  = 
ORIGINATOR     = 

OBJECT_NAME    = STARLINK-36992
OBJECT_ID      = 2026-049H
CENTER_NAME    = EARTH
REF_FRAME      = TEME
TIME_SYSTEM    = UTC
MEAN_ELEMENT_THEORY = SGP/SGP4

EPOCH          = 2026-04-01T12:17:53.500992
MEAN_MOTION    = 15.80895993
ECCENTRICITY   = .0001214
INCLINATION    = 97.2834
RA_OF_ASC_NODE = 111.9239
ARG_OF_PERICENTER = 78.1659
MEAN_ANOMALY   = 281.9745

EPHEMERIS_TYPE = 0
CLASSIFICATION_TYPE = U
NORAD_CAT_ID   = 68149
ELEMENT_SET_NO = 999
REV_AT_EPOCH   = 301
BSTAR          = .12188E-2
MEAN_MOTION_DOT = .24076E-2
MEAN_MOTION_DDOT = 0

